H1 CPF 01  gfz 2021 06 19 00  6701 terrasarx 
H2 0702601  6201 31698    2021 06 19 00 59 42 2021 06 24 00 00 42   120 1 1  0 0 0
H9
10 0 59387  75582.000000  0   -1650866.815    403327.536   6664774.403
10 0 59387  75702.000000  0   -2243590.106   1061952.865   6415058.446
10 0 59387  75822.000000  0   -2785704.903   1711974.183   6052581.255
10 0 59387  75942.000000  0   -3267991.701   2341070.103   5583678.080
10 0 59387  76062.000000  0   -3682480.173   2937124.727   5016555.892
10 0 59387  76182.000000  0   -4022585.519   3488463.185   4361155.346
10 0 59387  76302.000000  0   -4283218.246   3984083.584   3628981.586
10 0 59387  76422.000000  0   -4460865.264   4413881.250   2832905.243
10 0 59387  76542.000000  0   -4553638.893   4768859.790   1986935.580
10 0 59387  76662.000000  0   -4561292.417   5041323.138   1105970.387
10 0 59387  76782.000000  0   -4485203.047   5225043.010    205527.946
10 0 59387  76902.000000  0   -4328322.622   5315399.368   -698533.545
10 0 59387  77022.000000  0   -4095095.388   5309490.009  -1590305.931
10 0 59387  77142.000000  0   -3791343.500   5206201.625  -2454120.682
10 0 59387  77262.000000  0   -3424126.983   5006246.974  -3274830.614
10 0 59387  77382.000000  0   -3001580.160   4712163.077  -4038080.000
10 0 59387  77502.000000  0   -2532730.126   4328273.012  -4730554.652
10 0 59387  77622.000000  0   -2027302.268   3860614.263  -5340208.585
10 0 59387  77742.000000  0   -1495518.315   3316836.749  -5856465.768
10 0 59387  77862.000000  0    -947889.759   2706070.309  -6270394.882
10 0 59387  77982.000000  0    -395011.155   2038765.270  -6574852.583
10 0 59387  78102.000000  0     152641.627   1326511.424  -6764594.946
10 0 59387  78222.000000  0     684904.805    581837.654  -6836358.692
10 0 59387  78342.000000  0    1192111.207   -182004.633  -6788912.025
10 0 59387  78462.000000  0    1665261.838   -951273.009  -6623072.449
10 0 59387  78582.000000  0    2096181.150  -1711974.757  -6341693.234
10 0 59387  78702.000000  0    2477656.155  -2450114.738  -5949619.961
10 0 59387  78822.000000  0    2803556.713  -3151947.775  -5453617.226
10 0 59387  78942.000000  0    3068936.560  -3804234.765  -4862263.586
10 0 59387  79062.000000  0    3270110.549  -4394493.714  -4185811.918
10 0 59387  79182.000000  0    3404707.004  -4911240.569  -3436022.135
10 0 59387  79302.000000  0    3471696.495  -5344219.175  -2625966.807
10 0 59387  79422.000000  0    3471393.643  -5684613.995  -1769807.822
10 0 59387  79542.000000  0    3405431.693  -5925237.272   -882549.641
10 0 59387  79662.000000  0    3276710.118  -6060688.172     20226.877
10 0 59387  79782.000000  0    3089314.520  -6087476.752    922644.668
10 0 59387  79902.000000  0    2848412.915  -6004111.494   1808817.076
10 0 59387  80022.000000  0    2560129.794  -5811145.886   2663138.155
10 0 59387  80142.000000  0    2231400.028  -5511182.119   3470565.591
10 0 59387  80262.000000  0    1869808.468  -5108834.563   4216890.774
10 0 59387  80382.000000  0    1483418.920  -4610653.858   4888992.739
10 0 59387  80502.000000  0    1080597.472  -4025012.851   5475069.825
10 0 59387  80622.000000  0     669832.486  -3361957.095   5964846.632
10 0 59387  80742.000000  0     259556.215  -2633022.954   6349748.676
10 0 59387  80862.000000  0    -142026.780  -1851030.823   6623045.358
10 0 59387  80982.000000  0    -527101.700  -1029856.594   6779961.288
10 0 59387  81102.000000  0    -888394.191   -184183.931   6817755.932
10 0 59387  81222.000000  0   -1219306.753    670759.215   6735768.671
10 0 59387  81342.000000  0   -1514038.767   1519474.441   6535429.251
10 0 59387  81462.000000  0   -1767688.084   2346472.907   6220234.413
10 0 59387  81582.000000  0   -1976333.233   3136557.927   5795690.744
10 0 59387  81702.000000  0   -2137094.313   3875105.489   5269223.685
10 0 59387  81822.000000  0   -2248172.317   4548338.569   4650054.858
10 0 59387  81942.000000  0   -2308866.071   5143590.833   3949046.141
10 0 59387  82062.000000  0   -2319565.778   5649553.279   3178512.725
10 0 59387  82182.000000  0   -2281723.264   6056497.598   2352007.113
10 0 59387  82302.000000  0   -2197799.450   6356471.490   1484079.095
10 0 59387  82422.000000  0   -2071189.735   6543461.386    590014.968
10 0 59387  82542.000000  0   -1906129.322   6613517.817   -314438.415
10 0 59387  82662.000000  0   -1707581.205   6564840.581  -1213359.495
10 0 59387  82782.000000  0   -1481108.630   6397820.437  -2090943.933
10 0 59387  82902.000000  0   -1232735.126   6115031.547  -2931791.553
10 0 59387  83022.000000  0    -968797.883   5721181.722  -3721179.352
10 0 59387  83142.000000  0    -695797.847   5223023.620  -4445319.915
10 0 59387  83262.000000  0    -420249.970   4629226.590  -5091599.704
10 0 59387  83382.000000  0    -148536.621   3950214.931  -5648792.667
10 0 59387  83502.000000  0     113232.655   3197975.114  -6107247.390
10 0 59387  83622.000000  0     359351.482   2385836.080  -6459043.534
10 0 59387  83742.000000  0     584634.235   1528229.686  -6698116.518
10 0 59387  83862.000000  0     784520.094    640435.201  -6820352.365
10 0 59387  83982.000000  0     955161.188   -261689.505  -6823650.799
10 0 59387  84102.000000  0    1093493.795  -1161986.010  -6707956.917
10 0 59387  84222.000000  0    1197291.588  -2044277.249  -6475260.241
10 0 59387  84342.000000  0    1265200.940  -2892649.782  -6129564.722
10 0 59387  84462.000000  0    1296758.084  -3691736.107  -5676829.398
10 0 59387  84582.000000  0    1292385.947  -4426992.956  -5124875.544
10 0 59387  84702.000000  0    1253372.809  -5084966.992  -4483261.697
10 0 59387  84822.000000  0    1181831.932  -5653546.416  -3763130.026
10 0 59387  84942.000000  0    1080641.983  -6122193.274  -2977021.751
10 0 59387  85062.000000  0     953370.418  -6482149.761  -2138665.116
10 0 59387  85182.000000  0     804181.132  -6726614.628  -1262738.443
10 0 59387  85302.000000  0     637727.390  -6850883.647   -364611.430
10 0 59387  85422.000000  0     459033.088  -6852449.299    539929.352
10 0 59387  85542.000000  0     273365.394  -6731057.959   1434964.626
10 0 59387  85662.000000  0      86101.858  -6488722.538   2304731.487
10 0 59387  85782.000000  0     -97404.577  -6129688.600   3133911.212
10 0 59387  85902.000000  0    -271959.254  -5660353.220   3907907.503
10 0 59387  86022.000000  0    -432654.930  -5089142.158   4613106.817
10 0 59387  86142.000000  0    -574992.588  -4426349.490   5237120.035
10 0 59387  86262.000000  0    -694990.957  -3683942.266   5768999.298
10 0 59387  86382.000000  0    -789282.859  -2875334.477   6199427.838
10 0 59388    102.000000  0    -855195.967  -2015135.732   6520876.386
10 0 59388    222.000000  0    -890816.576  -1118883.679   6727727.314
10 0 59388    342.000000  0    -895035.972   -202761.679   6816368.310
10 0 59388    462.000000  0    -867578.627    716694.351   6785251.935
10 0 59388    582.000000  0    -809010.195   1622894.111   6634921.030
10 0 59388    702.000000  0    -720725.777   2499491.712   6367999.694
10 0 59388    822.000000  0    -604919.208   3330680.302   5989150.412
10 0 59388    942.000000  0    -464534.032   4101478.819   5504997.587
10 0 59388   1062.000000  0    -303196.485   4798005.358   4924017.175
10 0 59388   1182.000000  0    -125131.738   5407734.069   4256395.156
10 0 59388   1302.000000  0      64935.509   5919728.655   3513851.561
10 0 59388   1422.000000  0     261892.541   6324846.231   2709440.298
10 0 59388   1542.000000  0     460361.565   6615916.555   1857319.214
10 0 59388   1662.000000  0     654831.767   6787876.162    972493.886
10 0 59388   1782.000000  0     839795.320   6837861.773     70547.299
10 0 59388   1902.000000  0    1009885.162   6765260.331   -832642.749
10 0 59388   2022.000000  0    1160009.490   6571713.149  -1721191.902
10 0 59388   2142.000000  0    1285479.955   6261075.637  -2579495.988
10 0 59388   2262.000000  0    1382130.966   5839333.451  -3392511.133
10 0 59388   2382.000000  0    1446427.261   5314476.930  -4146020.916
10 0 59388   2502.000000  0    1475557.220   4696337.622  -4826884.917
10 0 59388   2622.000000  0    1467509.509   3996391.675  -5423263.198
10 0 59388   2742.000000  0    1421131.539   3227537.186  -5924814.135
10 0 59388   2862.000000  0    1336168.969   2403848.878  -6322864.228
10 0 59388   2982.000000  0    1213285.285   1540316.277  -6610545.740
10 0 59388   3102.000000  0    1054062.374    652572.101  -6782904.475
10 0 59388   3222.000000  0     860981.424   -243387.617  -6836976.754
10 0 59388   3342.000000  0     637384.555  -1131486.616  -6771834.080
10 0 59388   3462.000000  0     387417.837  -1995849.491  -6588595.685
10 0 59388   3582.000000  0     115957.286  -2821076.908  -6290411.913
10 0 59388   3702.000000  0    -171482.971  -3592515.785  -5882417.978
10 0 59388   3822.000000  0    -468858.040  -4296517.692  -5371653.625
10 0 59388   3942.000000  0    -769713.131  -4920681.397  -4766953.049
10 0 59388   4062.000000  0   -1067317.433  -5454077.014  -4078803.760
10 0 59388   4182.000000  0   -1354808.271  -5887446.339  -3319174.670
10 0 59388   4302.000000  0   -1625342.222  -6213374.390  -2501315.539
10 0 59388   4422.000000  0   -1872250.223  -6426428.699  -1639530.671
10 0 59388   4542.000000  0   -2089192.924  -6523262.359   -748929.047
10 0 59388   4662.000000  0   -2270312.271  -6502676.571    154844.414
10 0 59388   4782.000000  0   -2410375.705  -6365639.986   1055890.476
10 0 59388   4902.000000  0   -2504908.806  -6115264.233   1938343.787
10 0 59388   5022.000000  0   -2550312.833  -5756735.934   2786661.498
10 0 59388   5142.000000  0   -2543963.738  -5297206.753   3585905.381
10 0 59388   5262.000000  0   -2484290.141  -4745644.817   4322010.841
10 0 59388   5382.000000  0   -2370829.061  -4112652.276   4982037.467
10 0 59388   5502.000000  0   -2204258.709  -3410253.344   5554397.610
10 0 59388   5622.000000  0   -1986406.233  -2651656.498   6029057.588
99
